STARLINK-6252
1 56555U 23065BE  26061.16668981  .00023843  00000+0  16293-2 0  9994
2 56555  43.0005 263.6895 0000496 283.2921 285.6761 15.05730981  5767
